KUIPER-00357            
1 68866U 26095C   26201.02675007  .00001681  00000+0  24939-3 0  9999
2 68866  51.9030  97.9446 0001315  98.3747 261.7365 14.79947963 12586
KUIPER-00364            
1 68867U 26095D   26200.99034868  .00001507  00000+0  22665-3 0  9990
2 68867  51.9047 100.6150 0001275 162.7037 197.3969 14.79928616 12546
KUIPER-00375            
1 68868U 26095E   26200.98011762  .00000692  00000+0  12930-3 0  9996
2 68868  51.9021  92.6138 0003348 109.8314 250.3008 14.76399355 12653
KUIPER-00433            
1 68869U 26095F   26200.94865954  .00001639  00000+0  24368-3 0  9993
2 68869  51.9012 108.2878 0001241  92.4959 267.6145 14.79976790 12437
KUIPER-00437            
1 68870U 26095G   26200.96462160  .00009563  00000+0  25653-3 0  9991
2 68870  51.8781  83.7545 0007911  66.6643 293.5176 15.38625714 12774
KUIPER-00448            
1 68871U 26095H   26200.97276078  .00000818  00000+0  14707-3 0  9996
2 68871  51.9045  96.5687 0001337 176.9847 183.1123 14.76432776 12596
KUIPER-00459            
1 68872U 26095J   26201.25004630 -.00040308  00000+0 -31005-2 0  9991
2 68872  51.8888  85.3652 0010559  61.6104 304.6694 15.01184890  4124
KUIPER-00468            
1 68873U 26095K   26201.25004630 -.00006261  00000+0 -33058-3 0  9993
2 68873  51.8883  83.8626 0004844  29.9189 129.7550 15.13314443  3391
KUIPER-00476            
1 68874U 26095L   26200.95573196 -.00009071  00000+0 -26726-3 0  9994
2 68874  51.8722  85.1199 0010014  61.6336 298.5658 15.33151983 12751
KUIPER-00478            
1 68875U 26095M   26201.25004630 -.00066774  00000+0 -79470-2 0  9997
2 68875  51.8994  86.9137 0006563  50.5171  24.2624 14.84228014  5587
KUIPER-00480            
1 68876U 26095N   26201.25004630 -.00039057  00000+0 -31377-2 0  9996
2 68876  51.8886  84.7354 0005871  51.9419  13.1132 14.99551725  3512
KUIPER-00482            
1 68877U 26095P   26200.91551417  .00000775  00000+0  14105-3 0  9993
2 68877  51.9021  95.8021 0000640 266.1681  93.9206 14.76418884 12600
KUIPER-00483            
1 68878U 26095Q   26201.03945708  .00000947  00000+0  16518-3 0  9999
2 68878  51.8989 107.7539 0001241 269.0222  91.0597 14.76522033 12447
KUIPER-00488            
1 68879U 26095R   26201.25004630 -.00048040  00000+0 -62941-2 0  9992
2 68879  51.8989  89.4688 0001176  39.2873  27.6748 14.80089118  4637
KUIPER-00489            
1 68880U 26095S   26201.25004630 -.01211408  00000+0 -59703-1 0  9996
2 68880  51.8796  84.1507 0012662  64.3222 272.0354 15.20299017  4800
KUIPER-00499            
1 68881U 26095T   26201.25004630 -.00039895  00000+0 -40051-2 0  9991
2 68881  51.8969  87.3462 0008073  60.3079  16.3512 14.90852858  3667
