{"fetched_at":"2026-07-20T18:28:50.031Z","source":"https://celestrak.org/NORAD/elements/gp.php?GROUP=kuiper&FORMAT=JSON","constellation":"kuiper","records":[{"OBJECT_NAME":"KUIPER-00357","OBJECT_ID":"2026-095C","EPOCH":"2026-07-20T00:38:31.206048","CLASSIFICATION_TYPE":"U","MEAN_MOTION":14.79947963,"ECCENTRICITY":0.00013157,"INCLINATION":51.903,"RA_OF_ASC_NODE":97.9446,"ARG_OF_PERICENTER":98.3747,"MEAN_ANOMALY":261.7365,"EPHEMERIS_TYPE":0,"NORAD_CAT_ID":68866,"ELEMENT_SET_NO":999,"REV_AT_EPOCH":1258,"BSTAR":0.00024939395,"MEAN_MOTION_DOT":0.00001681,"MEAN_MOTION_DDOT":0},{"OBJECT_NAME":"KUIPER-00364","OBJECT_ID":"2026-095D","EPOCH":"2026-07-19T23:46:06.125952","CLASSIFICATION_TYPE":"U","MEAN_MOTION":14.79928616,"ECCENTRICITY":0.00012757,"INCLINATION":51.9047,"RA_OF_ASC_NODE":100.615,"ARG_OF_PERICENTER":162.7037,"MEAN_ANOMALY":197.3969,"EPHEMERIS_TYPE":0,"NORAD_CAT_ID":68867,"ELEMENT_SET_NO":999,"REV_AT_EPOCH":1254,"BSTAR":0.0002266475,"MEAN_MOTION_DOT":0.00001507,"MEAN_MOTION_DDOT":0},{"OBJECT_NAME":"KUIPER-00375","OBJECT_ID":"2026-095E","EPOCH":"2026-07-19T23:31:22.162368","CLASSIFICATION_TYPE":"U","MEAN_MOTION":14.76399355,"ECCENTRICITY":0.00033489,"INCLINATION":51.9021,"RA_OF_ASC_NODE":92.6138,"ARG_OF_PERICENTER":109.8314,"MEAN_ANOMALY":250.3008,"EPHEMERIS_TYPE":0,"NORAD_CAT_ID":68868,"ELEMENT_SET_NO":999,"REV_AT_EPOCH":1265,"BSTAR":0.00012929696,"MEAN_MOTION_DOT":0.00000692,"MEAN_MOTION_DDOT":0},{"OBJECT_NAME":"KUIPER-00433","OBJECT_ID":"2026-095F","EPOCH":"2026-07-19T22:46:04.184256","CLASSIFICATION_TYPE":"U","MEAN_MOTION":14.7997679,"ECCENTRICITY":0.00012416,"INCLINATION":51.9012,"RA_OF_ASC_NODE":108.2878,"ARG_OF_PERICENTER":92.4959,"MEAN_ANOMALY":267.6145,"EPHEMERIS_TYPE":0,"NORAD_CAT_ID":68869,"ELEMENT_SET_NO":999,"REV_AT_EPOCH":1243,"BSTAR":0.00024368022,"MEAN_MOTION_DOT":0.00001639,"MEAN_MOTION_DDOT":0},{"OBJECT_NAME":"KUIPER-00437","OBJECT_ID":"2026-095G","EPOCH":"2026-07-19T23:09:03.306240","CLASSIFICATION_TYPE":"U","MEAN_MOTION":15.38625714,"ECCENTRICITY":0.00079116,"INCLINATION":51.8781,"RA_OF_ASC_NODE":83.7545,"ARG_OF_PERICENTER":66.6643,"MEAN_ANOMALY":293.5176,"EPHEMERIS_TYPE":0,"NORAD_CAT_ID":68870,"ELEMENT_SET_NO":999,"REV_AT_EPOCH":1277,"BSTAR":0.00025652965,"MEAN_MOTION_DOT":0.00009563,"MEAN_MOTION_DDOT":0},{"OBJECT_NAME":"KUIPER-00448","OBJECT_ID":"2026-095H","EPOCH":"2026-07-19T23:20:46.531392","CLASSIFICATION_TYPE":"U","MEAN_MOTION":14.76432776,"ECCENTRICITY":0.00013379,"INCLINATION":51.9045,"RA_OF_ASC_NODE":96.5687,"ARG_OF_PERICENTER":176.9847,"MEAN_ANOMALY":183.1123,"EPHEMERIS_TYPE":0,"NORAD_CAT_ID":68871,"ELEMENT_SET_NO":999,"REV_AT_EPOCH":1259,"BSTAR":0.0001470722,"MEAN_MOTION_DOT":0.00000818,"MEAN_MOTION_DDOT":0},{"OBJECT_NAME":"KUIPER-00459","OBJECT_ID":"2026-095J","EPOCH":"2026-07-20T06:00:04.000320","CLASSIFICATION_TYPE":"U","MEAN_MOTION":15.0118489,"ECCENTRICITY":0.0010559,"INCLINATION":51.8888,"RA_OF_ASC_NODE":85.3652,"ARG_OF_PERICENTER":61.6104,"MEAN_ANOMALY":304.6694,"EPHEMERIS_TYPE":0,"NORAD_CAT_ID":68872,"ELEMENT_SET_NO":999,"REV_AT_EPOCH":412,"BSTAR":-0.0031004922,"MEAN_MOTION_DOT":-0.00040308,"MEAN_MOTION_DDOT":0},{"OBJECT_NAME":"KUIPER-00468","OBJECT_ID":"2026-095K","EPOCH":"2026-07-20T06:00:04.000320","CLASSIFICATION_TYPE":"U","MEAN_MOTION":15.13314443,"ECCENTRICITY":0.00048445,"INCLINATION":51.8883,"RA_OF_ASC_NODE":83.8626,"ARG_OF_PERICENTER":29.9189,"MEAN_ANOMALY":129.755,"EPHEMERIS_TYPE":0,"NORAD_CAT_ID":68873,"ELEMENT_SET_NO":999,"REV_AT_EPOCH":339,"BSTAR":-0.0003305811,"MEAN_MOTION_DOT":-0.00006261,"MEAN_MOTION_DDOT":0},{"OBJECT_NAME":"KUIPER-00476","OBJECT_ID":"2026-095L","EPOCH":"2026-07-19T22:56:15.241344","CLASSIFICATION_TYPE":"U","MEAN_MOTION":15.33151983,"ECCENTRICITY":0.0010014,"INCLINATION":51.8722,"RA_OF_ASC_NODE":85.1199,"ARG_OF_PERICENTER":61.6336,"MEAN_ANOMALY":298.5658,"EPHEMERIS_TYPE":0,"NORAD_CAT_ID":68874,"ELEMENT_SET_NO":999,"REV_AT_EPOCH":1275,"BSTAR":-0.00026726424,"MEAN_MOTION_DOT":-0.00009071,"MEAN_MOTION_DDOT":0},{"OBJECT_NAME":"KUIPER-00478","OBJECT_ID":"2026-095M","EPOCH":"2026-07-20T06:00:04.000320","CLASSIFICATION_TYPE":"U","MEAN_MOTION":14.84228014,"ECCENTRICITY":0.00065639,"INCLINATION":51.8994,"RA_OF_ASC_NODE":86.9137,"ARG_OF_PERICENTER":50.5171,"MEAN_ANOMALY":24.2624,"EPHEMERIS_TYPE":0,"NORAD_CAT_ID":68875,"ELEMENT_SET_NO":999,"REV_AT_EPOCH":558,"BSTAR":-0.0079470467,"MEAN_MOTION_DOT":-0.00066774,"MEAN_MOTION_DDOT":0},{"OBJECT_NAME":"KUIPER-00480","OBJECT_ID":"2026-095N","EPOCH":"2026-07-20T06:00:04.000320","CLASSIFICATION_TYPE":"U","MEAN_MOTION":14.99551725,"ECCENTRICITY":0.00058714,"INCLINATION":51.8886,"RA_OF_ASC_NODE":84.7354,"ARG_OF_PERICENTER":51.9419,"MEAN_ANOMALY":13.1132,"EPHEMERIS_TYPE":0,"NORAD_CAT_ID":68876,"ELEMENT_SET_NO":999,"REV_AT_EPOCH":351,"BSTAR":-0.0031376913,"MEAN_MOTION_DOT":-0.00039057,"MEAN_MOTION_DDOT":0},{"OBJECT_NAME":"KUIPER-00482","OBJECT_ID":"2026-095P","EPOCH":"2026-07-19T21:58:20.424288","CLASSIFICATION_TYPE":"U","MEAN_MOTION":14.76418884,"ECCENTRICITY":0.00006409,"INCLINATION":51.9021,"RA_OF_ASC_NODE":95.8021,"ARG_OF_PERICENTER":266.1681,"MEAN_ANOMALY":93.9206,"EPHEMERIS_TYPE":0,"NORAD_CAT_ID":68877,"ELEMENT_SET_NO":999,"REV_AT_EPOCH":1260,"BSTAR":0.00014104988,"MEAN_MOTION_DOT":0.00000775,"MEAN_MOTION_DDOT":0},{"OBJECT_NAME":"KUIPER-00483","OBJECT_ID":"2026-095Q","EPOCH":"2026-07-20T00:56:49.091712","CLASSIFICATION_TYPE":"U","MEAN_MOTION":14.76522033,"ECCENTRICITY":0.00012412,"INCLINATION":51.8989,"RA_OF_ASC_NODE":107.7539,"ARG_OF_PERICENTER":269.0222,"MEAN_ANOMALY":91.0597,"EPHEMERIS_TYPE":0,"NORAD_CAT_ID":68878,"ELEMENT_SET_NO":999,"REV_AT_EPOCH":1244,"BSTAR":0.00016517867,"MEAN_MOTION_DOT":0.00000947,"MEAN_MOTION_DDOT":0},{"OBJECT_NAME":"KUIPER-00488","OBJECT_ID":"2026-095R","EPOCH":"2026-07-20T06:00:04.000320","CLASSIFICATION_TYPE":"U","MEAN_MOTION":14.80089118,"ECCENTRICITY":0.00011761,"INCLINATION":51.8989,"RA_OF_ASC_NODE":89.4688,"ARG_OF_PERICENTER":39.2873,"MEAN_ANOMALY":27.6748,"EPHEMERIS_TYPE":0,"NORAD_CAT_ID":68879,"ELEMENT_SET_NO":999,"REV_AT_EPOCH":463,"BSTAR":-0.0062940885,"MEAN_MOTION_DOT":-0.0004804,"MEAN_MOTION_DDOT":0},{"OBJECT_NAME":"KUIPER-00489","OBJECT_ID":"2026-095S","EPOCH":"2026-07-20T06:00:04.000320","CLASSIFICATION_TYPE":"U","MEAN_MOTION":15.20299017,"ECCENTRICITY":0.00126625,"INCLINATION":51.8796,"RA_OF_ASC_NODE":84.1507,"ARG_OF_PERICENTER":64.3222,"MEAN_ANOMALY":272.0354,"EPHEMERIS_TYPE":0,"NORAD_CAT_ID":68880,"ELEMENT_SET_NO":999,"REV_AT_EPOCH":480,"BSTAR":-0.059702735,"MEAN_MOTION_DOT":-0.01211408,"MEAN_MOTION_DDOT":0},{"OBJECT_NAME":"KUIPER-00499","OBJECT_ID":"2026-095T","EPOCH":"2026-07-20T06:00:04.000320","CLASSIFICATION_TYPE":"U","MEAN_MOTION":14.90852858,"ECCENTRICITY":0.00080732,"INCLINATION":51.8969,"RA_OF_ASC_NODE":87.3462,"ARG_OF_PERICENTER":60.3079,"MEAN_ANOMALY":16.3512,"EPHEMERIS_TYPE":0,"NORAD_CAT_ID":68881,"ELEMENT_SET_NO":999,"REV_AT_EPOCH":366,"BSTAR":-0.0040050535,"MEAN_MOTION_DOT":-0.00039895,"MEAN_MOTION_DDOT":0}]}
